GPS BIIR-2  (PRN 13)    
1 24876U 97035A   26031.59076669 -.00000018  00000+0  00000+0 0  9999
2 24876  55.9183 103.9173 0097293  56.5790 304.3989  2.00563854209219
GPS BIIR-5  (PRN 22)    
1 26407U 00040A   26031.67627523  .00000059  00000+0  00000+0 0  9995
2 26407  54.8818 220.5823 0123663 302.4072  52.8260  2.00568502187205
GPS BIIR-8  (PRN 16)    
1 27663U 03005A   26031.50718818  .00000062  00000+0  00000+0 0  9998
2 27663  54.9137 220.3976 0148660  52.4380 316.7971  2.00568010168574
GPS BIIR-11 (PRN 19)    
1 28190U 04009A   26030.27961565  .00000003  00000+0  00000+0 0  9996
2 28190  54.9425 281.2596 0109592 168.3588 191.4596  2.00559011160172
GPS BIIR-13 (PRN 02)    
1 28474U 04045A   26031.48268973 -.00000095  00000+0  00000+0 0  9990
2 28474  55.2136 330.4048 0171148 311.4735 258.8985  2.00571730155682
GPS BIIRM-1 (PRN 17)    
1 28874U 05038A   26031.75543104  .00000003  00000+0  00000+0 0  9997
2 28874  54.9881 278.6838 0129839 294.7763  72.6619  2.00575043149100
GPS BIIRM-2 (PRN 31)    
1 29486U 06042A   26031.45798086 -.00000015  00000+0  00000+0 0  9995
2 29486  54.6978 156.7682 0106758  52.8398 358.8432  2.00552233141659
GPS BIIRM-3 (PRN 12)    
1 29601U 06052A   26030.80419345  .00000073  00000+0  00000+0 0  9994
2 29601  54.9628 219.4498 0088253  88.7807 272.2502  2.00549535140654
GPS BIIRM-4 (PRN 15)    
1 32260U 07047A   26031.61134921 -.00000019  00000+0  00000+0 0  9999
2 32260  53.9905  85.6969 0163588  85.7226 276.2145  2.00562232134074
GPS BIIRM-5 (PRN 29)    
1 32384U 07062A   26031.17401464  .00000005  00000+0  00000+0 0  9997
2 32384  55.1398 279.6605 0032050 160.9557  12.4939  2.00551421132768
GPS BIIRM-6 (PRN 07)    
1 32711U 08012A   26031.53064971 -.00000016  00000+0  00000+0 0  9998
2 32711  54.4815 155.3851 0205060 245.6420 112.1670  2.00567737131018
GPS BIIRM-8 (PRN 05)    
1 35752U 09043A   26031.50883427 -.00000056  00000+0  00000+0 0  9997
2 35752  56.1264  32.8217 0051308  80.9856 280.2028  2.00562380120623
GPS BIIF-1  (PRN 25)    
1 36585U 10022A   26031.34225995  .00000058  00000+0  00000+0 0  9994
2 36585  54.2938 214.0728 0127343  65.6285 292.3658  2.00555619114842
GPS BIIF-3  (PRN 24)    
1 38833U 12053A   26031.70831045 -.00000021  00000+0  00000+0 0  9998
2 38833  53.5637 149.1922 0176613  64.5533 297.2270  2.00565366 96708
GPS BIIF-4  (PRN 27)    
1 39166U 13023A   26031.07434552  .00000016  00000+0  00000+0 0  9991
2 39166  54.6105 274.5594 0140554  49.3594 311.9296  2.00564305 93139
GPS BIIF-5  (PRN 30)    
1 39533U 14008A   26031.56955764 -.00000017  00000+0  00000+0 0  9992
2 39533  53.6364 154.8933 0081092 227.1627 132.1145  2.00551036 86948
GPS BIIF-6  (PRN 06)    
1 39741U 14026A   26031.84995071 -.00000099  00000+0  00000+0 0  9999
2 39741  56.5619 336.8277 0040029 322.5154  37.2040  2.00570813 85804
GPS BIIF-7  (PRN 09)    
1 40105U 14045A   26028.94406219 -.00000031  00000+0  00000+0 0  9990
2 40105  55.2574  94.0141 0031401 120.4917 239.8704  2.00575432 83284
GPS BIIF-8  (PRN 03)    
1 40294U 14068A   26031.31696297 -.00000048  00000+0  00000+0 0  9994
2 40294  56.8956  36.2293 0061565  68.2437 292.4450  2.00567731 82465
GPS BIIF-9  (PRN 26)    
1 40534U 15013A   26031.44726506  .00000050  00000+0  00000+0 0  9995
2 40534  53.1916 209.8312 0108442  39.4562 321.3220  2.00559453 79086
GPS BIIF-10 (PRN 08)    
1 40730U 15033A   26030.61107122  .00000021  00000+0  00000+0 0  9998
2 40730  54.0895 272.7585 0113505  28.1566 332.5285  2.00563100 77230
GPS BIIF-11 (PRN 10)    
1 41019U 15062A   26031.66739253 -.00000050  00000+0  00000+0 0  9996
2 41019  56.8696  36.0721 0111514 231.0993 127.9315  2.00566998 75090
GPS BIIF-12 (PRN 32)    
1 41328U 16007A   26031.25288701 -.00000019  00000+0  00000+0 0  9996
2 41328  55.4344  94.8901 0094408 245.0410 114.0351  2.00558204 73097
GPS BIII-1  (PRN 04)    
1 43873U 18109A   26031.63991634 -.00000016  00000+0  00000+0 0  9993
2 43873  55.5947  97.5749 0037776 197.1703 335.0489  2.00555145 52333
GPS BIII-2  (PRN 18)    
1 44506U 19056A   26031.73583289 -.00000099  00000+0  00000+0 0  9994
2 44506  55.7000 336.5677 0057763 198.6079 301.9135  2.00567320 47337
GPS BIII-3  (PRN 23)    
1 45854U 20041A   26030.87704735 -.00000049  00000+0  00000+0 0  9997
2 45854  56.5828  34.2725 0061076 204.8277 338.6334  2.00560793 41282
GPS BIII-4  (PRN 14)    
1 46826U 20078A   26030.91032753  .00000066  00000+0  00000+0 0  9994
2 46826  54.0077 216.3438 0066632 203.6323 336.1964  2.00565852 38758
GPS BIII-5  (PRN 11)    
1 48859U 21054A   26023.67748104 -.00000070  00000+0  00000+0 0  9992
2 48859  55.2399 338.2713 0024261 234.6467 305.5589  2.00551324 33859
GPS BIII-6  (PRN 28)    
1 55268U 23009A   26030.35263904 -.00000013  00000+0  00000+0 0  9996
2 55268  55.1087 153.9363 0004102 342.0936  20.4130  2.00551531 22486
GPS BIII-7  (PRN 01)    
1 62339U 24242A   26031.23240734 -.00000101  00000+0  00000+0 0  9995
2 62339  54.9056 339.7356 0014594 351.4446   6.1548  2.00568664  8504
GPS BIII-8  (PRN 21)    
1 64202U 25116A   26031.68037012 -.00000054  00000+0  00000+0 0  9996
2 64202  55.1437  36.6244 0007619 319.0842 189.3690  2.00554883  5136
GPS BIII-9 (PRN 20)     
1 67588U 26017A   26028.76206649  .00000346  00000+0  32093-3 0  9990
2 67588  55.0007  99.1396 5940837 270.1415  26.1406  4.03376750    44
